{
  "type": "FeatureCollection",
  "features": [
    {
      "type": "Feature",
      "properties": {
        "norad_id": 62876,
        "name": "QZS-6 (QZSS/PRN 200)",
        "group": "gnss",
        "lat": -0.043052792977751435,
        "lon": -19.287388085497746,
        "alt_km": 35782.96568721165,
        "timestamp": "2025-12-18T10:51:26.048249+00:00",
        "meta_object_name": "QZS-6 (QZSS/PRN 200)",
        "meta_object_id": "2025-023A",
        "meta_epoch": "2025-12-17T20:36:16.236864",
        "meta_mean_motion": 1.00273314,
        "meta_eccentricity": 0.00014959,
        "meta_inclination": 0.044,
        "meta_ra_of_asc_node": 66.4098,
        "meta_arg_of_pericenter": 210.103,
        "meta_mean_anomaly": 209.8165,
        "meta_ephemeris_type": 0,
        "meta_classification_type": "U",
        "meta_norad_cat_id": 62876,
        "meta_element_set_no": 999,
        "meta_rev_at_epoch": 314,
        "meta_bstar": 0,
        "meta_mean_motion_dot": -2.09e-06,
        "meta_mean_motion_ddot": 0,
        "tle_line1": "1 62876U 25023A   25351.85852126 -.00000209  00000+0  00000+0 0  9994",
        "tle_line2": "2 62876   0.0440  66.4098 0001495 210.1030 209.8165  1.00273314  3148"
      },
      "geometry": {
        "type": "Point",
        "coordinates": [
          -19.287388085497746,
          -0.043052792977751435
        ]
      }
    },
    {
      "type": "Feature",
      "properties": {
        "norad_id": 63130,
        "name": "COSMOS 2584 (704K)",
        "group": "gnss",
        "lat": -16.42742549461076,
        "lon": 71.0598219469694,
        "alt_km": 19143.37248018049,
        "timestamp": "2025-12-18T10:51:26.048261+00:00",
        "meta_object_name": "COSMOS 2584 (704K)",
        "meta_object_id": "2025-042A",
        "meta_epoch": "2025-12-14T17:19:43.603680",
        "meta_mean_motion": 2.13103043,
        "meta_eccentricity": 0.00076907,
        "meta_inclination": 64.977,
        "meta_ra_of_asc_node": 79.0784,
        "meta_arg_of_pericenter": 217.9412,
        "meta_mean_anomaly": 142.0178,
        "meta_ephemeris_type": 0,
        "meta_classification_type": "U",
        "meta_norad_cat_id": 63130,
        "meta_element_set_no": 999,
        "meta_rev_at_epoch": 611,
        "meta_bstar": 0,
        "meta_mean_motion_dot": -5.6e-07,
        "meta_mean_motion_ddot": 0,
        "tle_line1": "1 63130U 25042A   25348.72203245 -.00000056  00000+0  00000+0 0  9993",
        "tle_line2": "2 63130  64.9770  79.0784 0007690 217.9412 142.0178  2.13103043  6119"
      },
      "geometry": {
        "type": "Point",
        "coordinates": [
          71.0598219469694,
          -16.42742549461076
        ]
      }
    },
    {
      "type": "Feature",
      "properties": {
        "norad_id": 64202,
        "name": "GPS BIII-8  (PRN 21)",
        "group": "gnss",
        "lat": -52.30462013090331,
        "lon": -77.11099637339034,
        "alt_km": 20179.510591185277,
        "timestamp": "2025-12-18T10:51:26.048272+00:00",
        "meta_object_name": "GPS BIII-8  (PRN 21)",
        "meta_object_id": "2025-116A",
        "meta_epoch": "2025-12-14T02:46:13.653120",
        "meta_mean_motion": 2.00558299,
        "meta_eccentricity": 0.00056153,
        "meta_inclination": 55.1067,
        "meta_ra_of_asc_node": 38.5851,
        "meta_arg_of_pericenter": 308.147,
        "meta_mean_anomaly": 55.2369,
        "meta_ephemeris_type": 0,
        "meta_classification_type": "U",
        "meta_norad_cat_id": 64202,
        "meta_element_set_no": 999,
        "meta_rev_at_epoch": 416,
        "meta_bstar": 0,
        "meta_mean_motion_dot": -9.6e-07,
        "meta_mean_motion_ddot": 0,
        "tle_line1": "1 64202U 25116A   25348.11543580 -.00000096  00000+0  00000+0 0  9992",
        "tle_line2": "2 64202  55.1067  38.5851 0005615 308.1470  55.2369  2.00558299  4161"
      },
      "geometry": {
        "type": "Point",
        "coordinates": [
          -77.11099637339034,
          -52.30462013090331
        ]
      }
    },
    {
      "type": "Feature",
      "properties": {
        "norad_id": 65590,
        "name": "COSMOS 2596 (708K)",
        "group": "gnss",
        "lat": 62.838544540127764,
        "lon": 74.34639105866263,
        "alt_km": 19155.36017515339,
        "timestamp": "2025-12-18T10:51:26.048284+00:00",
        "meta_object_name": "COSMOS 2596 (708K)",
        "meta_object_id": "2025-206B",
        "meta_epoch": "2025-12-16T13:58:37.157664",
        "meta_mean_motion": 2.13100551,
        "meta_eccentricity": 0.00140491,
        "meta_inclination": 64.7424,
        "meta_ra_of_asc_node": 321.3409,
        "meta_arg_of_pericenter": 306.7915,
        "meta_mean_anomaly": 158.8114,
        "meta_ephemeris_type": 0,
        "meta_classification_type": "U",
        "meta_norad_cat_id": 65590,
        "meta_element_set_no": 999,
        "meta_rev_at_epoch": 202,
        "meta_bstar": 0,
        "meta_mean_motion_dot": -6.9e-07,
        "meta_mean_motion_ddot": 0,
        "tle_line1": "1 65590U 25206B   25350.58237451 -.00000069  00000+0  00000+0 0  9994",
        "tle_line2": "2 65590  64.7424 321.3409 0014049 306.7915 158.8114  2.13100551  2025"
      },
      "geometry": {
        "type": "Point",
        "coordinates": [
          74.34639105866263,
          62.838544540127764
        ]
      }
    },
    {
      "type": "Feature",
      "properties": {
        "norad_id": 67160,
        "name": "GALILEO A",
        "group": "gnss",
        "lat": -8.570046088791532,
        "lon": -66.54595918649353,
        "alt_km": 22930.923072641832,
        "timestamp": "2025-12-18T10:51:26.048298+00:00",
        "meta_object_name": "GALILEO A",
        "meta_object_id": "2025-302A",
        "meta_epoch": "2025-12-17T13:37:30.925056",
        "meta_mean_motion": 1.72900439,
        "meta_eccentricity": 0.00075221,
        "meta_inclination": 54.2352,
        "meta_ra_of_asc_node": 107.2635,
        "meta_arg_of_pericenter": 237.6848,
        "meta_mean_anomaly": 122.2012,
        "meta_ephemeris_type": 0,
        "meta_classification_type": "U",
        "meta_norad_cat_id": 67160,
        "meta_element_set_no": 999,
        "meta_rev_at_epoch": 1,
        "meta_bstar": 0,
        "meta_mean_motion_dot": -8e-08,
        "meta_mean_motion_ddot": 0,
        "tle_line1": "1 67160U 25302A   25351.56771904 -.00000008  00000+0  00000+0 0  9994",
        "tle_line2": "2 67160  54.2352 107.2635 0007522 237.6848 122.2012  1.72900439    17"
      },
      "geometry": {
        "type": "Point",
        "coordinates": [
          -66.54595918649353,
          -8.570046088791532
        ]
      }
    },
    {
      "type": "Feature",
      "properties": {
        "norad_id": 67161,
        "name": "GALILEO B",
        "group": "gnss",
        "lat": -8.79473745489568,
        "lon": -66.39513292525955,
        "alt_km": 22930.9214687556,
        "timestamp": "2025-12-18T10:51:26.048311+00:00",
        "meta_object_name": "GALILEO B",
        "meta_object_id": "2025-302B",
        "meta_epoch": "2025-12-17T13:37:26.172192",
        "meta_mean_motion": 1.72965674,
        "meta_eccentricity": 0.00048649,
        "meta_inclination": 54.2314,
        "meta_ra_of_asc_node": 107.2469,
        "meta_arg_of_pericenter": 248.2865,
        "meta_mean_anomaly": 111.6205,
        "meta_ephemeris_type": 0,
        "meta_classification_type": "U",
        "meta_norad_cat_id": 67161,
        "meta_element_set_no": 999,
        "meta_rev_at_epoch": 2,
        "meta_bstar": 0,
        "meta_mean_motion_dot": -8e-08,
        "meta_mean_motion_ddot": 0,
        "tle_line1": "1 67161U 25302B   25351.56766403 -.00000008  00000+0  00000+0 0  9993",
        "tle_line2": "2 67161  54.2314 107.2469 0004864 248.2865 111.6205  1.72965674    23"
      },
      "geometry": {
        "type": "Point",
        "coordinates": [
          -66.39513292525955,
          -8.79473745489568
        ]
      }
    }
  ]
}